[{"OBJECT_NAME":"LEMUR-2-ALISIA","OBJECT_ID":"2025-009DB","EPOCH":"2026-03-09T17:42:17.671392","MEAN_MOTION":15.01147598,"ECCENTRICITY":0.00065821,"INCLINATION":97.7037,"RA_OF_ASC_NODE":151.6973,"ARG_OF_PERICENTER":159.9869,"MEAN_ANOMALY":200.1615,"EPHEMERIS_TYPE":0,"CLASSIFICATION_TYPE":"U","NORAD_CAT_ID":62706,"ELEMENT_SET_NO":999,"REV_AT_EPOCH":8523,"BSTAR":0.00072005311,"MEAN_MOTION_DOT":9.177e-5,"MEAN_MOTION_DDOT":0},{"OBJECT_NAME":"STARLINK-34370","OBJECT_ID":"2025-123U","EPOCH":"2026-03-09T17:30:42.469344","MEAN_MOTION":14.98334393,"ECCENTRICITY":0.00037331,"INCLINATION":70.0016,"RA_OF_ASC_NODE":194.3836,"ARG_OF_PERICENTER":273.6723,"MEAN_ANOMALY":86.4009,"EPHEMERIS_TYPE":0,"CLASSIFICATION_TYPE":"U","NORAD_CAT_ID":64309,"ELEMENT_SET_NO":999,"REV_AT_EPOCH":4162,"BSTAR":0.0006408962,"MEAN_MOTION_DOT":7.563e-5,"MEAN_MOTION_DDOT":0}]
